start=new Date('2023-03-12T00:00:00.000Z').valueOf();
sats=[{"OBJECT_ID":"2023-020E","OBJECT_NAME":"STARLINK-5738","EPHEMERIS_TYPE":"0","GP_ID":"227892856","REV_AT_EPOCH":"130","CENTER_NAME":"EARTH","SITE":"AFETR","CLASSIFICATION_TYPE":"U","EPOCH":"2023-03-11T22:00:00.999936","COUNTRY_CODE":"US","REF_FRAME":"TEME","TLE_LINE2":"2 55573  42.9986 190.8716 0001704 268.8059  53.3651 15.42041026  1309","TLE_LINE1":"1 55573U 23020E   23070.91667824 -.01210125  00000-0 -30492-1 0  9990","PERIOD":"93.383","MEAN_MOTION":"15.42041026","LAUNCH_DATE":"2023-02-12","MEAN_MOTION_DDOT":"0.0000000000000","PERIAPSIS":"438.927","OBJECT_TYPE":"PAYLOAD","ECCENTRICITY":"0.00017040","BSTAR":"-0.03049200000000","INCLINATION":"42.9986","SEMIMAJOR_AXIS":"6818.223","TIME_SYSTEM":"UTC","MEAN_MOTION_DOT":"-0.01210125","NORAD_CAT_ID":"55573","MEAN_ELEMENT_THEORY":"SGP4","RA_OF_ASC_NODE":"190.8716","APOAPSIS":"441.250","FILE":"3857847","MEAN_ANOMALY":"53.3651","ELEMENT_SET_NO":"999","ARG_OF_PERICENTER":"268.8059","DECAY_DATE":null,"RCS_SIZE":"LARGE"},{"ELEMENT_SET_NO":"999","ARG_OF_PERICENTER":"274.5790","FILE":"3857847","MEAN_ANOMALY":"64.2047","APOAPSIS":"437.169","RCS_SIZE":"LARGE","DECAY_DATE":null,"MEAN_ELEMENT_THEORY":"SGP4","MEAN_MOTION_DOT":"-0.01238497","NORAD_CAT_ID":"55574","TIME_SYSTEM":"UTC","SEMIMAJOR_AXIS":"6814.285","RA_OF_ASC_NODE":"190.8332","ECCENTRICITY":"0.00014960","OBJECT_TYPE":"PAYLOAD","BSTAR":"-0.02989400000000","INCLINATION":"42.9989","LAUNCH_DATE":"2023-02-12","MEAN_MOTION":"15.43378060","PERIOD":"93.302","PERIAPSIS":"435.131","MEAN_MOTION_DDOT":"0.0000000000000","TLE_LINE2":"2 55574  42.9989 190.8332 0001496 274.5790  64.2047 15.43378060  1303","TLE_LINE1":"1 55574U 23020F   23070.91667824 -.01238497  00000-0 -29894-1 0  9997","EPOCH":"2023-03-11T22:00:00.999936","REF_FRAME":"TEME","COUNTRY_CODE":"US","SITE":"AFETR","CENTER_NAME":"EARTH","REV_AT_EPOCH":"130","CLASSIFICATION_TYPE":"U","GP_ID":"227891604","EPHEMERIS_TYPE":"0","OBJECT_NAME":"STARLINK-5747","OBJECT_ID":"2023-020F"},{"PERIOD":"93.324","MEAN_MOTION":"15.43009298","LAUNCH_DATE":"2023-02-12","MEAN_MOTION_DDOT":"0.0000000000000","PERIAPSIS":"436.209","OBJECT_TYPE":"PAYLOAD","ECCENTRICITY":"0.00015060","INCLINATION":"42.9987","BSTAR":"-0.03030200000000","SEMIMAJOR_AXIS":"6815.371","NORAD_CAT_ID":"55575","MEAN_MOTION_DOT":"-0.01239630","TIME_SYSTEM":"UTC","MEAN_ELEMENT_THEORY":"SGP4","RA_OF_ASC_NODE":"190.8448","APOAPSIS":"438.262","FILE":"3857847","MEAN_ANOMALY":"57.3321","ELEMENT_SET_NO":"999","ARG_OF_PERICENTER":"275.9073","DECAY_DATE":null,"RCS_SIZE":"LARGE","OBJECT_ID":"2023-020G","EPHEMERIS_TYPE":"0","OBJECT_NAME":"STARLINK-5745","GP_ID":"227891854","REV_AT_EPOCH":"130","CENTER_NAME":"EARTH","SITE":"AFETR","CLASSIFICATION_TYPE":"U","EPOCH":"2023-03-11T22:00:00.999936","COUNTRY_CODE":"US","REF_FRAME":"TEME","TLE_LINE2":"2 55575  42.9987 190.8448 0001506 275.9073  57.3321 15.43009298  1303","TLE_LINE1":"1 55575U 23020G   23070.91667824 -.01239630  00000-0 -30302-1 0  9994"},{"MEAN_ELEMENT_THEORY":"SGP4","TIME_SYSTEM":"UTC","MEAN_MOTION_DOT":"0.00008190","NORAD_CAT_ID":"55576","SEMIMAJOR_AXIS":"6733.116","RA_OF_ASC_NODE":"192.0819","ELEMENT_SET_NO":"999","ARG_OF_PERICENTER":"264.4912","FILE":"3857581","MEAN_ANOMALY":"95.5667","APOAPSIS":"356.685","RCS_SIZE":"LARGE","DECAY_DATE":null,"LAUNCH_DATE":"2023-02-12","MEAN_MOTION":"15.71370694","PERIOD":"91.640","PERIAPSIS":"353.276","MEAN_MOTION_DDOT":"0.0000000000000","ECCENTRICITY":"0.00025320","OBJECT_TYPE":"PAYLOAD","INCLINATION":"43.0034","BSTAR":"0.00006579600000","EPOCH":"2023-03-11T09:49:12.410688","REF_FRAME":"TEME","COUNTRY_CODE":"US","TLE_LINE2":"2 55576  43.0034 192.0819 0002532 264.4912  95.5667 15.71370694  4290","TLE_LINE1":"1 55576U 23020H   23070.40917142  .00008190  00000-0  65796-4 0  9990","GP_ID":"227860795","OBJECT_NAME":"STARLINK-5751","EPHEMERIS_TYPE":"0","OBJECT_ID":"2023-020H","SITE":"AFETR","CENTER_NAME":"EARTH","REV_AT_EPOCH":"429","CLASSIFICATION_TYPE":"U"},{"CLASSIFICATION_TYPE":"U","SITE":"AFETR","REV_AT_EPOCH":"130","CENTER_NAME":"EARTH","GP_ID":"227893356","OBJECT_ID":"2023-020J","OBJECT_NAME":"STARLINK-5752","EPHEMERIS_TYPE":"0","TLE_LINE1":"1 55577U 23020J   23070.91667824 -.00811194  00000-0 -14738-1 0  9991","TLE_LINE2":"2 55577  42.9980 190.3700 0001411 278.7093 248.7364 15.51221924  1306","REF_FRAME":"TEME","COUNTRY_CODE":"US","EPOCH":"2023-03-11T22:00:00.999936","INCLINATION":"42.9980","BSTAR":"-0.01473800000000","OBJECT_TYPE":"PAYLOAD","ECCENTRICITY":"0.00014110","MEAN_MOTION_DDOT":"0.0000000000000","PERIAPSIS":"412.201","LAUNCH_DATE":"2023-02-12","PERIOD":"92.830","MEAN_MOTION":"15.51221924","DECAY_DATE":null,"RCS_SIZE":"LARGE","ARG_OF_PERICENTER":"278.7093","ELEMENT_SET_NO":"999","APOAPSIS":"414.118","MEAN_ANOMALY":"248.7364","FILE":"3857847","RA_OF_ASC_NODE":"190.3700","MEAN_ELEMENT_THEORY":"SGP4","SEMIMAJOR_AXIS":"6791.294","MEAN_MOTION_DOT":"-0.00811194","NORAD_CAT_ID":"55577","TIME_SYSTEM":"UTC"},{"GP_ID":"227892104","OBJECT_ID":"2023-020K","EPHEMERIS_TYPE":"0","OBJECT_NAME":"STARLINK-5713","SITE":"AFETR","REV_AT_EPOCH":"130","CENTER_NAME":"EARTH","CLASSIFICATION_TYPE":"U","EPOCH":"2023-03-11T22:00:00.999936","REF_FRAME":"TEME","COUNTRY_CODE":"US","TLE_LINE2":"2 55578  42.9988 190.8207 0001533 273.0881  70.4632 15.43668740  1300","TLE_LINE1":"1 55578U 23020K   23070.91667824 -.01238735  00000-0 -29605-1 0  9996","LAUNCH_DATE":"2023-02-12","PERIOD":"93.284","MEAN_MOTION":"15.43668740","MEAN_MOTION_DDOT":"0.0000000000000","PERIAPSIS":"434.250","OBJECT_TYPE":"PAYLOAD","ECCENTRICITY":"0.00015330","INCLINATION":"42.9988","BSTAR":"-0.02960500000000","MEAN_ELEMENT_THEORY":"SGP4","SEMIMAJOR_AXIS":"6813.430","MEAN_MOTION_DOT":"-0.01238735","TIME_SYSTEM":"UTC","NORAD_CAT_ID":"55578","RA_OF_ASC_NODE":"190.8207","ELEMENT_SET_NO":"999","ARG_OF_PERICENTER":"273.0881","APOAPSIS":"436.339","FILE":"3857847","MEAN_ANOMALY":"70.4632","DECAY_DATE":null,"RCS_SIZE":"LARGE"},{"RA_OF_ASC_NODE":"190.8009","MEAN_ELEMENT_THEORY":"SGP4","SEMIMAJOR_AXIS":"6812.368","NORAD_CAT_ID":"55579","MEAN_MOTION_DOT":"-0.01239229","TIME_SYSTEM":"UTC","DECAY_DATE":null,"RCS_SIZE":"LARGE","ARG_OF_PERICENTER":"268.5390","ELEMENT_SET_NO":"999","APOAPSIS":"435.270","MEAN_ANOMALY":"82.7014","FILE":"3857847","MEAN_MOTION_DDOT":"0.0000000000000","PERIAPSIS":"433.196","LAUNCH_DATE":"2023-02-12","PERIOD":"93.262","MEAN_MOTION":"15.44029455","INCLINATION":"42.9987","BSTAR":"-0.02925500000000","OBJECT_TYPE":"PAYLOAD","ECCENTRICITY":"0.00015220","REF_FRAME":"TEME","COUNTRY_CODE":"US","EPOCH":"2023-03-11T22:00:00.999936","TLE_LINE1":"1 55579U 23020L   23070.91667824 -.01239229  00000-0 -29255-1 0  9997","TLE_LINE2":"2 55579  42.9987 190.8009 0001522 268.5390  82.7014 15.44029455  1307","GP_ID":"227892354","OBJECT_ID":"2023-020L","OBJECT_NAME":"STARLINK-5754","EPHEMERIS_TYPE":"0","CLASSIFICATION_TYPE":"U","SITE":"AFETR","REV_AT_EPOCH":"130","CENTER_NAME":"EARTH"},{"BSTAR":"-0.00001506100000","INCLINATION":"43.0002","OBJECT_TYPE":"PAYLOAD","ECCENTRICITY":"0.00021080","MEAN_MOTION_DDOT":"0.0000000000000","PERIAPSIS":"353.511","PERIOD":"91.639","MEAN_MOTION":"15.71388154","LAUNCH_DATE":"2023-02-12","DECAY_DATE":null,"RCS_SIZE":"LARGE","APOAPSIS":"356.350","FILE":"3857581","MEAN_ANOMALY":"97.3649","ELEMENT_SET_NO":"999","ARG_OF_PERICENTER":"262.6979","RA_OF_ASC_NODE":"192.0805","SEMIMAJOR_AXIS":"6733.066","MEAN_MOTION_DOT":"-0.00002430","TIME_SYSTEM":"UTC","NORAD_CAT_ID":"55580","MEAN_ELEMENT_THEORY":"SGP4","CLASSIFICATION_TYPE":"U","REV_AT_EPOCH":"429","CENTER_NAME":"EARTH","SITE":"AFETR","OBJECT_ID":"2023-020M","OBJECT_NAME":"STARLINK-5757","EPHEMERIS_TYPE":"0","GP_ID":"227860295","TLE_LINE1":"1 55580U 23020M   23070.40866383 -.00002430  00000-0 -15061-4 0  9998","TLE_LINE2":"2 55580  43.0002 192.0805 0002108 262.6979  97.3649 15.71388154  4297","COUNTRY_CODE":"US","REF_FRAME":"TEME","EPOCH":"2023-03-11T09:48:28.554912"},{"MEAN_MOTION":"15.43625264","PERIOD":"93.287","LAUNCH_DATE":"2023-02-12","PERIAPSIS":"434.364","MEAN_MOTION_DDOT":"0.0000000000000","ECCENTRICITY":"0.00015530","OBJECT_TYPE":"PAYLOAD","BSTAR":"-0.02959400000000","INCLINATION":"42.9987","MEAN_MOTION_DOT":"-0.01236655","NORAD_CAT_ID":"55581","TIME_SYSTEM":"UTC","SEMIMAJOR_AXIS":"6813.557","MEAN_ELEMENT_THEORY":"SGP4","RA_OF_ASC_NODE":"190.8238","FILE":"3857847","MEAN_ANOMALY":"67.3927","APOAPSIS":"436.481","ELEMENT_SET_NO":"999","ARG_OF_PERICENTER":"274.5709","RCS_SIZE":"LARGE","DECAY_DATE":null,"OBJECT_NAME":"STARLINK-5753","EPHEMERIS_TYPE":"0","OBJECT_ID":"2023-020N","GP_ID":"227892857","CENTER_NAME":"EARTH","REV_AT_EPOCH":"130","SITE":"AFETR","CLASSIFICATION_TYPE":"U","EPOCH":"2023-03-11T22:00:00.999936","COUNTRY_CODE":"US","REF_FRAME":"TEME","TLE_LINE2":"2 55581  42.9987 190.8238 0001553 274.5709  67.3927 15.43625264  1300","TLE_LINE1":"1 55581U 23020N   23070.91667824 -.01236655  00000-0 -29594-1 0  9996"},{"SITE":"AFETR","REV_AT_EPOCH":"435","CENTER_NAME":"EARTH","CLASSIFICATION_TYPE":"U","GP_ID":"227891605","OBJECT_ID":"2023-020P","OBJECT_NAME":"STARLINK-5741","EPHEMERIS_TYPE":"0","TLE_LINE2":"2 55582  43.0016 189.8133 0002203 254.2678 105.7947 15.71371153  4354","TLE_LINE1":"1 55582U 23020P   23070.79256850  .00011616  00000-0  91839-4 0  9995","EPOCH":"2023-03-11T19:01:17.918400","REF_FRAME":"TEME","COUNTRY_CODE":"US","OBJECT_TYPE":"PAYLOAD","ECCENTRICITY":"0.00022030","BSTAR":"0.00009183900000","INCLINATION":"43.0016","LAUNCH_DATE":"2023-02-12","PERIOD":"91.640","MEAN_MOTION":"15.71371153","MEAN_MOTION_DDOT":"0.0000000000000","PERIAPSIS":"353.496","ELEMENT_SET_NO":"999","ARG_OF_PERICENTER":"254.2678","APOAPSIS":"356.463","FILE":"3857847","MEAN_ANOMALY":"105.7947","DECAY_DATE":null,"RCS_SIZE":"LARGE","MEAN_ELEMENT_THEORY":"SGP4","SEMIMAJOR_AXIS":"6733.114","MEAN_MOTION_DOT":"0.00011616","NORAD_CAT_ID":"55582","TIME_SYSTEM":"UTC","RA_OF_ASC_NODE":"189.8133"}];
